{
  "type": "FeatureCollection",
  "features": [
    {
      "type": "Feature",
      "properties": {
        "name": "Simple Path",
        "method": "interpolate=False",
        "vertices": 14,
        "color": "#FF0000"
      },
      "geometry": {
        "type": "LineString",
        "coordinates": [
          [
            -106.482557,
            31.742807
          ],
          [
            -106.4830086,
            31.7427199
          ],
          [
            -106.4833295,
            31.7426656
          ],
          [
            -106.4842051,
            31.7425811
          ],
          [
            -106.4842849,
            31.7425738
          ],
          [
            -106.4844383,
            31.7425654
          ],
          [
            -106.4854313,
            31.7425529
          ],
          [
            -106.48583,
            31.7438832
          ],
          [
            -106.4860283,
            31.7445439
          ],
          [
            -106.4862149,
            31.7451852
          ],
          [
            -106.4863855,
            31.7457158
          ],
          [
            -106.486934,
            31.748816
          ],
          [
            -106.486884,
            31.7493554
          ],
          [
            -106.4868386,
            31.7499836
          ]
        ]
      }
    },
    {
      "type": "Feature",
      "properties": {
        "name": "Detailed Path",
        "method": "interpolate=True",
        "vertices": 37,
        "color": "#00FF00"
      },
      "geometry": {
        "type": "LineString",
        "coordinates": [
          [
            -106.482557,
            31.742807
          ],
          [
            -106.4830086,
            31.7427199
          ],
          [
            -106.4833295,
            31.7426656
          ],
          [
            -106.483494,
            31.7426441
          ],
          [
            -106.4838548,
            31.7426082
          ],
          [
            -106.4841146,
            31.7425892
          ],
          [
            -106.4842051,
            31.7425811
          ],
          [
            -106.484244,
            31.7425773
          ],
          [
            -106.4842849,
            31.7425738
          ],
          [
            -106.4843671,
            31.7425677
          ],
          [
            -106.4844383,
            31.7425654
          ],
          [
            -106.484921,
            31.7425586
          ],
          [
            -106.4852301,
            31.7425614
          ],
          [
            -106.485332,
            31.7425597
          ],
          [
            -106.4854313,
            31.7425529
          ],
          [
            -106.4855553,
            31.7429515
          ],
          [
            -106.4856466,
            31.7432454
          ],
          [
            -106.48583,
            31.7438832
          ],
          [
            -106.4860283,
            31.7445439
          ],
          [
            -106.4862149,
            31.7451852
          ],
          [
            -106.4863855,
            31.7457158
          ],
          [
            -106.4864075,
            31.7458128
          ],
          [
            -106.486429,
            31.7458876
          ],
          [
            -106.4864515,
            31.7459549
          ],
          [
            -106.4864653,
            31.7459957
          ],
          [
            -106.4865224,
            31.7461566
          ],
          [
            -106.4865962,
            31.7463736
          ],
          [
            -106.4867515,
            31.7468914
          ],
          [
            -106.4869256,
            31.7474567
          ],
          [
            -106.4869709,
            31.7478687
          ],
          [
            -106.4869789,
            31.7483017
          ],
          [
            -106.486934,
            31.748816
          ],
          [
            -106.48689,
            31.749193
          ],
          [
            -106.486884,
            31.7493554
          ],
          [
            -106.4867677,
            31.7495406
          ],
          [
            -106.4868266,
            31.7499293
          ],
          [
            -106.4868386,
            31.7499836
          ]
        ]
      }
    }
  ]
}